{"type": "FeatureCollection", "features": [ {"type": "Feature", "properties": {"norad_id": 37550, "name": "IRIDIUM 33 DEB", "group": "iridium-33-debris", "lat": 22.274434732946837, "lon": 23.48092931017069, "alt_km": 668.841648202696, "timestamp": "2025-12-16T23:36:36.583917+00:00", "meta": {"OBJECT_NAME": "IRIDIUM 33 DEB", "OBJECT_ID": "1997-051XK", "EPOCH": "2025-12-16T08:46:40.262592", "MEAN_MOTION": 14.67259754, "ECCENTRICITY": 0.0005579, "INCLINATION": 86.3783, "RA_OF_ASC_NODE": 22.2681, "ARG_OF_PERICENTER": 103.1019, "MEAN_ANOMALY": 257.0818, "EPHEMERIS_TYPE": 0, "CLASSIFICATION_TYPE": "U", "NORAD_CAT_ID": 37550, "ELEMENT_SET_NO": 999, "REV_AT_EPOCH": 86386, "BSTAR": 0.00084076341, "MEAN_MOTION_DOT": 4.76e-05, "MEAN_MOTION_DDOT": 0}, "tle": {"line1": "1 37550U 97051XK  25350.36574378  .00004760  00000+0  84076-3 0  9994", "line2": "2 37550  86.3783  22.2681 0005579 103.1019 257.0818 14.67259754863861"}}, "geometry": {"type": "Point", "coordinates": [23.48092931017069, 22.274434732946837]}}, {"type": "Feature", "properties": {"norad_id": 37562, "name": "IRIDIUM 33 DEB", "group": "iridium-33-debris", "lat": 66.88439228716304, "lon": 50.29273295892301, "alt_km": 681.0018525076212, "timestamp": "2025-12-16T23:36:36.583926+00:00", "meta": {"OBJECT_NAME": "IRIDIUM 33 DEB", "OBJECT_ID": "1997-051XX", "EPOCH": "2025-12-12T22:34:29.180064", "MEAN_MOTION": 14.56479735, "ECCENTRICITY": 0.00267072, "INCLINATION": 86.3742, "RA_OF_ASC_NODE": 43.5127, "ARG_OF_PERICENTER": 107.2211, "MEAN_ANOMALY": 13.868, "EPHEMERIS_TYPE": 0, "CLASSIFICATION_TYPE": "U", "NORAD_CAT_ID": 37562, "ELEMENT_SET_NO": 999, "REV_AT_EPOCH": 86331, "BSTAR": 0.0015437368, "MEAN_MOTION_DOT": 6.916e-05, "MEAN_MOTION_DDOT": 0}, "tle": {"line1": "1 37562U 97051XX  25346.94061551  .00006916  00000+0  15437-2 0  9999", "line2": "2 37562  86.3742  43.5127 0026707 107.2211  13.8680 14.56479735863311"}}, "geometry": {"type": "Point", "coordinates": [50.29273295892301, 66.88439228716304]}}, {"type": "Feature", "properties": {"norad_id": 37565, "name": "IRIDIUM 33 DEB", "group": "iridium-33-debris", "lat": 47.54730404248565, "lon": -176.27272388345645, "alt_km": 711.2275057201496, "timestamp": "2025-12-16T23:36:36.583937+00:00", "meta": {"OBJECT_NAME": "IRIDIUM 33 DEB", "OBJECT_ID": "1997-051YA", "EPOCH": "2025-12-16T08:06:50.433408", "MEAN_MOTION": 14.51532577, "ECCENTRICITY": 0.00151174, "INCLINATION": 86.3492, "RA_OF_ASC_NODE": 8.0105, "ARG_OF_PERICENTER": 73.8183, "MEAN_ANOMALY": 286.4685, "EPHEMERIS_TYPE": 0, "CLASSIFICATION_TYPE": "U", "NORAD_CAT_ID": 37565, "ELEMENT_SET_NO": 999, "REV_AT_EPOCH": 65889, "BSTAR": 0.00040818811, "MEAN_MOTION_DOT": 1.655e-05, "MEAN_MOTION_DDOT": 0}, "tle": {"line1": "1 37565U 97051YA  25350.33808372  .00001655  00000+0  40819-3 0  9998", "line2": "2 37565  86.3492   8.0105 0015117  73.8183 286.4685 14.51532577658894"}}, "geometry": {"type": "Point", "coordinates": [-176.27272388345645, 47.54730404248565]}}, {"type": "Feature", "properties": {"norad_id": 38017, "name": "IRIDIUM 33 DEB", "group": "iridium-33-debris", "lat": -4.3696920231541085, "lon": -15.337896584728497, "alt_km": 737.7222434634168, "timestamp": "2025-12-16T23:36:36.583947+00:00", "meta": {"OBJECT_NAME": "IRIDIUM 33 DEB", "OBJECT_ID": "1997-051YD", "EPOCH": "2025-12-15T05:20:28.842720", "MEAN_MOTION": 14.49104048, "ECCENTRICITY": 0.00921394, "INCLINATION": 86.3417, "RA_OF_ASC_NODE": 165.1477, "ARG_OF_PERICENTER": 94.6566, "MEAN_ANOMALY": 266.5169, "EPHEMERIS_TYPE": 0, "CLASSIFICATION_TYPE": "U", "NORAD_CAT_ID": 38017, "ELEMENT_SET_NO": 999, "REV_AT_EPOCH": 61438, "BSTAR": 0.0029139765, "MEAN_MOTION_DOT": 0.00011718, "MEAN_MOTION_DDOT": 0}, "tle": {"line1": "1 38017U 97051YD  25349.22255605  .00011718  00000+0  29140-2 0  9996", "line2": "2 38017  86.3417 165.1477 0092139  94.6566 266.5169 14.49104048614383"}}, "geometry": {"type": "Point", "coordinates": [-15.337896584728497, -4.3696920231541085]}}, {"type": "Feature", "properties": {"norad_id": 38022, "name": "IRIDIUM 33 DEB", "group": "iridium-33-debris", "lat": -25.9295067370989, "lon": -163.59679516711458, "alt_km": 792.6310737047888, "timestamp": "2025-12-16T23:36:36.583957+00:00", "meta": {"OBJECT_NAME": "IRIDIUM 33 DEB", "OBJECT_ID": "1997-051YJ", "EPOCH": "2025-12-12T08:41:14.041248", "MEAN_MOTION": 14.41246239, "ECCENTRICITY": 0.00465932, "INCLINATION": 86.2691, "RA_OF_ASC_NODE": 16.6083, "ARG_OF_PERICENTER": 51.6762, "MEAN_ANOMALY": 308.8611, "EPHEMERIS_TYPE": 0, "CLASSIFICATION_TYPE": "U", "NORAD_CAT_ID": 38022, "ELEMENT_SET_NO": 999, "REV_AT_EPOCH": 69188, "BSTAR": 0.001535131, "MEAN_MOTION_DOT": 5.042e-05, "MEAN_MOTION_DDOT": 0}, "tle": {"line1": "1 38022U 97051YJ  25346.36196807  .00005042  00000+0  15351-2 0  9994", "line2": "2 38022  86.2691  16.6083 0046593  51.6762 308.8611 14.41246239691882"}}, "geometry": {"type": "Point", "coordinates": [-163.59679516711458, -25.9295067370989]}}, {"type": "Feature", "properties": {"norad_id": 38028, "name": "IRIDIUM 33 DEB", "group": "iridium-33-debris", "lat": 63.77532270923056, "lon": 5.920799879040404, "alt_km": 716.2209615850925, "timestamp": "2025-12-16T23:36:36.583968+00:00", "meta": {"OBJECT_NAME": "IRIDIUM 33 DEB", "OBJECT_ID": "1997-051YQ", "EPOCH": "2025-12-14T18:10:34.836096", "MEAN_MOTION": 14.46181503, "ECCENTRICITY": 0.00303806, "INCLINATION": 86.3253, "RA_OF_ASC_NODE": 359.392, "ARG_OF_PERICENTER": 114.704, "MEAN_ANOMALY": 245.733, "EPHEMERIS_TYPE": 0, "CLASSIFICATION_TYPE": "U", "NORAD_CAT_ID": 38028, "ELEMENT_SET_NO": 999, "REV_AT_EPOCH": 65524, "BSTAR": 0.00026010373, "MEAN_MOTION_DOT": 9.55e-06, "MEAN_MOTION_DDOT": 0}, "tle": {"line1": "1 38028U 97051YQ  25348.75734764  .00000955  00000+0  26010-3 0  9998", "line2": "2 38028  86.3253 359.3920 0030380 114.7040 245.7330 14.46181503655241"}}, "geometry": {"type": "Point", "coordinates": [5.920799879040404, 63.77532270923056]}}, {"type": "Feature", "properties": {"norad_id": 38228, "name": "IRIDIUM 33 DEB", "group": "iridium-33-debris", "lat": 68.77486280371689, "lon": 56.270892853697305, "alt_km": 807.2459074172193, "timestamp": "2025-12-16T23:36:36.583978+00:00", "meta": {"OBJECT_NAME": "IRIDIUM 33 DEB", "OBJECT_ID": "1997-051ZC", "EPOCH": "2025-12-15T22:37:05.354976", "MEAN_MOTION": 14.27271769, "ECCENTRICITY": 0.00646384, "INCLINATION": 86.2946, "RA_OF_ASC_NODE": 47.1084, "ARG_OF_PERICENTER": 179.0762, "MEAN_ANOMALY": 303.5549, "EPHEMERIS_TYPE": 0, "CLASSIFICATION_TYPE": "U", "NORAD_CAT_ID": 38228, "ELEMENT_SET_NO": 999, "REV_AT_EPOCH": 84827, "BSTAR": 0.00027707855, "MEAN_MOTION_DOT": 7.12e-06, "MEAN_MOTION_DDOT": 0}, "tle": {"line1": "1 38228U 97051ZC  25349.94242309  .00000712  00000+0  27708-3 0  9997", "line2": "2 38228  86.2946  47.1084 0064638 179.0762 303.5549 14.27271769848277"}}, "geometry": {"type": "Point", "coordinates": [56.270892853697305, 68.77486280371689]}}, {"type": "Feature", "properties": {"norad_id": 38241, "name": "IRIDIUM 33 DEB", "group": "iridium-33-debris", "lat": 52.573867936621276, "lon": -6.452257932179981, "alt_km": 700.8611818964282, "timestamp": "2025-12-16T23:36:36.583988+00:00", "meta": {"OBJECT_NAME": "IRIDIUM 33 DEB", "OBJECT_ID": "1997-051ZR", "EPOCH": "2025-12-13T06:13:58.226016", "MEAN_MOTION": 14.54873749, "ECCENTRICITY": 0.00056326, "INCLINATION": 86.3232, "RA_OF_ASC_NODE": 350.3699, "ARG_OF_PERICENTER": 72.2147, "MEAN_ANOMALY": 287.9674, "EPHEMERIS_TYPE": 0, "CLASSIFICATION_TYPE": "U", "NORAD_CAT_ID": 38241, "ELEMENT_SET_NO": 999, "REV_AT_EPOCH": 60208, "BSTAR": 0.0012492013, "MEAN_MOTION_DOT": 5.385e-05, "MEAN_MOTION_DDOT": 0}, "tle": {"line1": "1 38241U 97051ZR  25347.25970169  .00005385  00000+0  12492-2 0  9990", "line2": "2 38241  86.3232 350.3699 0005632  72.2147 287.9674 14.54873749602089"}}, "geometry": {"type": "Point", "coordinates": [-6.452257932179981, 52.573867936621276]}}, {"type": "Feature", "properties": {"norad_id": 38474, "name": "IRIDIUM 33 DEB", "group": "iridium-33-debris", "lat": 57.29542682699407, "lon": -177.49525585683855, "alt_km": 704.5404024793042, "timestamp": "2025-12-16T23:36:36.583999+00:00", "meta": {"OBJECT_NAME": "IRIDIUM 33 DEB", "OBJECT_ID": "1997-051AAB", "EPOCH": "2025-12-13T08:58:04.646496", "MEAN_MOTION": 14.5069505, "ECCENTRICITY": 0.00282612, "INCLINATION": 86.3454, "RA_OF_ASC_NODE": 9.789, "ARG_OF_PERICENTER": 86.1077, "MEAN_ANOMALY": 274.3358, "EPHEMERIS_TYPE": 0, "CLASSIFICATION_TYPE": "U", "NORAD_CAT_ID": 38474, "ELEMENT_SET_NO": 999, "REV_AT_EPOCH": 65327, "BSTAR": 0.00084561127, "MEAN_MOTION_DOT": 3.359e-05, "MEAN_MOTION_DDOT": 0}, "tle": {"line1": "1 38474U 97051AAB 25347.37366489  .00003359  00000+0  84561-3 0  9991", "line2": "2 38474  86.3454   9.7890 0028261  86.1077 274.3358 14.50695050653279"}}, "geometry": {"type": "Point", "coordinates": [-177.49525585683855, 57.29542682699407]}}, {"type": "Feature", "properties": {"norad_id": 39777, "name": "IRIDIUM 33 DEB", "group": "iridium-33-debris", "lat": -77.0242935298135, "lon": 10.832180568555001, "alt_km": 708.1634259028369, "timestamp": "2025-12-16T23:36:36.584009+00:00", "meta": {"OBJECT_NAME": "IRIDIUM 33 DEB", "OBJECT_ID": "1997-051AAJ", "EPOCH": "2025-12-16T05:56:45.354624", "MEAN_MOTION": 14.5651034, "ECCENTRICITY": 0.00600343, "INCLINATION": 85.963, "RA_OF_ASC_NODE": 173.3415, "ARG_OF_PERICENTER": 174.7294, "MEAN_ANOMALY": 185.456, "EPHEMERIS_TYPE": 0, "CLASSIFICATION_TYPE": "U", "NORAD_CAT_ID": 39777, "ELEMENT_SET_NO": 999, "REV_AT_EPOCH": 60236, "BSTAR": 0.0018808359, "MEAN_MOTION_DOT": 8.597e-05, "MEAN_MOTION_DDOT": 0}, "tle": {"line1": "1 39777U 97051AAJ 25350.24774716  .00008597  00000+0  18808-2 0  9993", "line2": "2 39777  85.9630 173.3415 0060034 174.7294 185.4560 14.56510340602362"}}, "geometry": {"type": "Point", "coordinates": [10.832180568555001, -77.0242935298135]}}]}